CTC1_L_00330001-01
1 53633U 24101RF  26070.40835648  .00000000  00000+0  00000-0 0  9990
2 53633  80.0000   0.0000 0000000   0.0000   0.0000 14.51731151    10
CTC1_L_00330001-02
1 53634U 22889BZ  26070.40835648  .00000000  00000+0  00000-0 0  9992
2 53634  80.0000   0.0000 0000000   0.0000  90.0000 14.51731151    10
CTC1_L_00330001-03
1 53635U 23343LU  26070.40835648  .00000000  00000+0  00000-0 0  9999
2 53635  80.0000   0.0000 0000000   0.0000 180.0000 14.51731151    11
CTC1_L_00330001-04
1 53636U 23767DW  26070.40835648  .00000000  00000+0  00000-0 0  9990
2 53636  80.0000   0.0000 0000000   0.0000 270.0000 14.51731151    12
CTC1_L_00330002-01
1 53637U 22783HP  26070.40835648  .00000000  00000+0  00000-0 0  9998
2 53637  80.0000  12.0000 0000000   0.0000  12.0000 14.51731151    10
CTC1_L_00330002-02
1 53638U 25334KJ  26070.40835648  .00000000  00000+0  00000-0 0  9994
2 53638  80.0000  12.0000 0000000   0.0000 102.0000 14.51731151    11
CTC1_L_00330002-03
1 53639U 22493HB  26070.40835648  .00000000  00000+0  00000-0 0  9998
2 53639  80.0000  12.0000 0000000   0.0000 192.0000 14.51731151    11
CTC1_L_00330002-04
1 53640U 22782XN  26070.40835648  .00000000  00000+0  00000-0 0  9991
2 53640  80.0000  12.0000 0000000   0.0000 282.0000 14.51731151    13
CTC1_L_00330003-01
1 53641U 26609D   26070.40835648  .00000000  00000+0  00000-0 0  9994
2 53641  80.0000  24.0000 0000000   0.0000  24.0000 14.51731151    11
CTC1_L_00330003-02
1 53642U 24975OK  26070.40835648  .00000000  00000+0  00000-0 0  9999
2 53642  80.0000  24.0000 0000000   0.0000 114.0000 14.51731151    12
CTC1_L_00330003-03
1 53643U 22910BJ  26070.40835648  .00000000  00000+0  00000-0 0  9997
2 53643  80.0000  24.0000 0000000   0.0000 204.0000 14.51731151    13
CTC1_L_00330003-04
1 53644U 22016HW  26070.40835648  .00000000  00000+0  00000-0 0  9995
2 53644  80.0000  24.0000 0000000   0.0000 294.0000 14.51731151    13
CTC1_L_00330004-01
1 53645U 26367GP  26070.40835648  .00000000  00000+0  00000-0 0  9999
2 53645  80.0000  36.0000 0000000   0.0000  36.0000 14.51731151    11
CTC1_L_00330004-02
1 53646U 23892YZ  26070.40835648  .00000000  00000+0  00000-0 0  9990
2 53646  80.0000  36.0000 0000000   0.0000 126.0000 14.51731151    12
CTC1_L_00330004-03
1 53647U 23177TK  26070.40835648  .00000000  00000+0  00000-0 0  9997
2 53647  80.0000  36.0000 0000000   0.0000 216.0000 14.51731151    13
CTC1_L_00330004-04
1 53648U 22445RZ  26070.40835648  .00000000  00000+0  00000-0 0  9995
2 53648  80.0000  36.0000 0000000   0.0000 306.0000 14.51731151    14
CTC1_L_00330005-01
1 53649U 24997LD  26070.40835648  .00000000  00000+0  00000-0 0  9990
2 53649  80.0000  48.0000 0000000   0.0000  48.0000 14.51731151    11
CTC1_L_00330005-02
1 53650U 22842ZO  26070.40835648  .00000000  00000+0  00000-0 0  9999
2 53650  80.0000  48.0000 0000000   0.0000 138.0000 14.51731151    13
CTC1_L_00330005-03
1 53651U 22836HZ  26070.40835648  .00000000  00000+0  00000-0 0  9993
2 53651  80.0000  48.0000 0000000   0.0000 228.0000 14.51731151    14
CTC1_L_00330005-04
1 53652U 24314UQ  26070.40835648  .00000000  00000+0  00000-0 0  9997
2 53652  80.0000  48.0000 0000000   0.0000 318.0000 14.51731151    15
CTC1_L_00330006-01
1 53653U 24544LY  26070.40835648  .00000000  00000+0  00000-0 0  9993
2 53653  80.0000  60.0000 0000000   0.0000  60.0000 14.51731151    14
CTC1_L_00330006-02
1 53654U 25205CK  26070.40835648  .00000000  00000+0  00000-0 0  9999
2 53654  80.0000  60.0000 0000000   0.0000 150.0000 14.51731151    15
CTC1_L_00330006-03
1 53655U 26147QX  26070.40835648  .00000000  00000+0  00000-0 0  9996
2 53655  80.0000  60.0000 0000000   0.0000 240.0000 14.51731151    16
CTC1_L_00330006-04
1 53656U 26875QE  26070.40835648  .00000000  00000+0  00000-0 0  9995
2 53656  80.0000  60.0000 0000000   0.0000 330.0000 14.51731151    17
CTC1_L_00330007-01
1 53657U 22186UF  26070.40835648  .00000000  00000+0  00000-0 0  9997
2 53657  80.0000  72.0000 0000000   0.0000  72.0000 14.51731151    14
CTC1_L_00330007-02
1 53658U 24705RP  26070.40835648  .00000000  00000+0  00000-0 0  9997
2 53658  80.0000  72.0000 0000000   0.0000 162.0000 14.51731151    15
CTC1_L_00330007-03
1 53659U 25822HN  26070.40835648  .00000000  00000+0  00000-0 0  9999
2 53659  80.0000  72.0000 0000000   0.0000 252.0000 14.51731151    16
CTC1_L_00330007-04
1 53660U 26082NZ  26070.40835648  .00000000  00000+0  00000-0 0  9990
2 53660  80.0000  72.0000 0000000   0.0000 342.0000 14.51731151    18
CTC1_L_00330008-01
1 53661U 25603EU  26070.40835648  .00000000  00000+0  00000-0 0  9999
2 53661  80.0000  84.0000 0000000   0.0000  84.0000 14.51731151    15
CTC1_L_00330008-02
1 53662U 26304DN  26070.40835648  .00000000  00000+0  00000-0 0  9999
2 53662  80.0000  84.0000 0000000   0.0000 174.0000 14.51731151    16
CTC1_L_00330008-03
1 53663U 23026JT  26070.40835648  .00000000  00000+0  00000-0 0  9998
2 53663  80.0000  84.0000 0000000   0.0000 264.0000 14.51731151    17
CTC1_L_00330008-04
1 53664U 25519IB  26070.40835648  .00000000  00000+0  00000-0 0  9998
2 53664  80.0000  84.0000 0000000   0.0000 354.0000 14.51731151    18
CTC1_L_00330009-01
1 53665U 23338KV  26070.40835648  .00000000  00000+0  00000-0 0  9996
2 53665  80.0000  96.0000 0000000   0.0000  96.0000 14.51731151    15
CTC1_L_00330009-02
1 53666U 23105ZF  26070.40835648  .00000000  00000+0  00000-0 0  9999
2 53666  80.0000  96.0000 0000000   0.0000 186.0000 14.51731151    16
CTC1_L_00330009-03
1 53667U 25292LO  26070.40835648  .00000000  00000+0  00000-0 0  9999
2 53667  80.0000  96.0000 0000000   0.0000 276.0000 14.51731151    17
CTC1_L_00330009-04
1 53668U 23392BX  26070.40835648  .00000000  00000+0  00000-0 0  9999
2 53668  80.0000  96.0000 0000000   0.0000   6.0000 14.51731151    19
CTC1_L_00330010-01
1 53669U 26734GS  26070.40835648  .00000000  00000+0  00000-0 0  9993
2 53669  80.0000 108.0000 0000000   0.0000 108.0000 14.51731151    17
CTC1_L_00330010-02
1 53670U 22336W   26070.40835648  .00000000  00000+0  00000-0 0  9999
2 53670  80.0000 108.0000 0000000   0.0000 198.0000 14.51731151    18
CTC1_L_00330010-03
1 53671U 26226MG  26070.40835648  .00000000  00000+0  00000-0 0  9992
2 53671  80.0000 108.0000 0000000   0.0000 288.0000 14.51731151    19
CTC1_L_00330010-04
1 53672U 25859AI  26070.40835648  .00000000  00000+0  00000-0 0  9994
2 53672  80.0000 108.0000 0000000   0.0000  18.0000 14.51731151    11
CTC1_L_00330011-01
1 53673U 26709GE  26070.40835648  .00000000  00000+0  00000-0 0  9990
2 53673  80.0000 120.0000 0000000   0.0000 120.0000 14.51731151    10
CTC1_L_00330011-02
1 53674U 23034UO  26070.40835648  .00000000  00000+0  00000-0 0  9999
2 53674  80.0000 120.0000 0000000   0.0000 210.0000 14.51731151    11
CTC1_L_00330011-03
1 53675U 25183ZE  26070.40835648  .00000000  00000+0  00000-0 0  9997
2 53675  80.0000 120.0000 0000000   0.0000 300.0000 14.51731151    12
CTC1_L_00330011-04
1 53676U 24107OS  26070.40835648  .00000000  00000+0  00000-0 0  9993
2 53676  80.0000 120.0000 0000000   0.0000  30.0000 14.51731151    13
CTC1_L_00330012-01
1 53677U 23670AX  26070.40835648  .00000000  00000+0  00000-0 0  9998
2 53677  80.0000 132.0000 0000000   0.0000 132.0000 14.51731151    10
CTC1_L_00330012-02
1 53678U 26039VW  26070.40835648  .00000000  00000+0  00000-0 0  9991
2 53678  80.0000 132.0000 0000000   0.0000 222.0000 14.51731151    11
CTC1_L_00330012-03
1 53679U 22201LL  26070.40835648  .00000000  00000+0  00000-0 0  9999
2 53679  80.0000 132.0000 0000000   0.0000 312.0000 14.51731151    12
CTC1_L_00330012-04
1 53680U 22535VU  26070.40835648  .00000000  00000+0  00000-0 0  9991
2 53680  80.0000 132.0000 0000000   0.0000  42.0000 14.51731151    14
CTC1_L_00330013-01
1 53681U 25687OD  26070.40835648  .00000000  00000+0  00000-0 0  9993
2 53681  80.0000 144.0000 0000000   0.0000 144.0000 14.51731151    11
CTC1_L_00330013-02
1 53682U 24054BO  26070.40835648  .00000000  00000+0  00000-0 0  9991
2 53682  80.0000 144.0000 0000000   0.0000 234.0000 14.51731151    12
CTC1_L_00330013-03
1 53683U 22349UX  26070.40835648  .00000000  00000+0  00000-0 0  9997
2 53683  80.0000 144.0000 0000000   0.0000 324.0000 14.51731151    13
CTC1_L_00330013-04
1 53684U 26351NQ  26070.40835648  .00000000  00000+0  00000-0 0  9995
2 53684  80.0000 144.0000 0000000   0.0000  54.0000 14.51731151    14
CTC1_L_00330014-01
1 53685U 25375SF  26070.40835648  .00000000  00000+0  00000-0 0  9991
2 53685  80.0000 156.0000 0000000   0.0000 156.0000 14.51731151    11
CTC1_L_00330014-02
1 53686U 23503PQ  26070.40835648  .00000000  00000+0  00000-0 0  9993
2 53686  80.0000 156.0000 0000000   0.0000 246.0000 14.51731151    12
CTC1_L_00330014-03
1 53687U 22497SL  26070.40835648  .00000000  00000+0  00000-0 0  9995
2 53687  80.0000 156.0000 0000000   0.0000 336.0000 14.51731151    13
CTC1_L_00330014-04
1 53688U 25558SE  26070.40835648  .00000000  00000+0  00000-0 0  9997
2 53688  80.0000 156.0000 0000000   0.0000  66.0000 14.51731151    14
CTC1_L_00330015-01
1 53689U 25986OV  26070.40835648  .00000000  00000+0  00000-0 0  9993
2 53689  80.0000 168.0000 0000000   0.0000 168.0000 14.51731151    11
CTC1_L_00330015-02
1 53690U 23163RM  26070.40835648  .00000000  00000+0  00000-0 0  9990
2 53690  80.0000 168.0000 0000000   0.0000 258.0000 14.51731151    13
CTC1_L_00330015-03
1 53691U 25146CQ  26070.40835648  .00000000  00000+0  00000-0 0  9994
2 53691  80.0000 168.0000 0000000   0.0000 348.0000 14.51731151    14
CTC1_L_00330015-04
1 53692U 26898VQ  26070.40835648  .00000000  00000+0  00000-0 0  9990
2 53692  80.0000 168.0000 0000000   0.0000  78.0000 14.51731151    15
CTC1_L_00330016-01
1 53693U 24375HS  26070.40835648  .00000000  00000+0  00000-0 0  9999
2 53693  80.0000 180.0000 0000000   0.0000 180.0000 14.51731151    14
CTC1_L_00330016-02
1 53694U 25135LU  26070.40835648  .00000000  00000+0  00000-0 0  9995
2 53694  80.0000 180.0000 0000000   0.0000 270.0000 14.51731151    15
